{
    "links": {
        "self": "http://www.neowsapp.com/rest/v1/neo/3418111?api_key=iIulBulltgU6a56xZRHN4H3l9WmuAYTsLGpBGhQ2"
    },
    "id": "3418111",
    "neo_reference_id": "3418111",
    "name": "(2008 NQ3)",
    "designation": "2008 NQ3",
    "nasa_jpl_url": "http://ssd.jpl.nasa.gov/sbdb.cgi?sstr=3418111",
    "absolute_magnitude_h": 20.3,
    "estimated_diameter": {
        "kilometers": {
            "estimated_diameter_min": 0.2315021222,
            "estimated_diameter_max": 0.5176544822
        },
        "meters": {
            "estimated_diameter_min": 231.5021222103,
            "estimated_diameter_max": 517.6544821978
        },
        "miles": {
            "estimated_diameter_min": 0.1438487052,
            "estimated_diameter_max": 0.3216554833
        },
        "feet": {
            "estimated_diameter_min": 759.5214226325,
            "estimated_diameter_max": 1698.3415313737
        }
    },
    "is_potentially_hazardous_asteroid": true,
    "close_approach_data": [
        {
            "close_approach_date": "2008-07-02",
            "close_approach_date_full": "2008-Jul-02 12:40",
            "epoch_date_close_approach": 1215002400000,
            "relative_velocity": {
                "kilometers_per_second": "16.7460398962",
                "kilometers_per_hour": "60285.7436263182",
                "miles_per_hour": "37459.2166438087"
            },
            "miss_distance": {
                "astronomical": "0.1148001646",
                "lunar": "44.6572640294",
                "kilometers": "17173860.099809402",
                "miles": "10671341.8293256676"
            },
            "orbiting_body": "Earth"
        }
    ],
    "orbital_data": {
        "orbit_id": "12",
        "orbit_determination_date": "2017-04-06 09:03:14",
        "first_observation_date": "2008-07-14",
        "last_observation_date": "2008-08-02",
        "data_arc_in_days": 19,
        "observations_used": 34,
        "orbit_uncertainty": "8",
        "minimum_orbit_intersection": ".0418183",
        "jupiter_tisserand_invariant": "3.116",
        "epoch_osculation": "2454669.5",
        "eccentricity": ".581764919707907",
        "semi_major_axis": "2.451030063887528",
        "inclination": "27.17291589033504",
        "ascending_node_longitude": "109.3887372526539",
        "orbital_period": "1401.591271586443",
        "perihelion_distance": "1.025106755568334",
        "perihelion_argument": "155.3015570197806",
        "aphelion_distance": "3.876953372206721",
        "perihelion_time": "2454631.486016373604",
        "mean_anomaly": "9.763926461965367",
        "mean_motion": ".2568509145983199",
        "equinox": "J2000",
        "orbit_class": {
            "orbit_class_type": "AMO",
            "orbit_class_description": "Near-Earth asteroid orbits similar to that of 1221 Amor",
            "orbit_class_range": "1.017 AU < q (perihelion) < 1.3 AU"
        }
    },
    "is_sentry_object": false
}